[Satellite]
VERSION=1.1
NAME=ITUPSAT 1
NICKNAME=ITUPSAT 1
TLE1=1 35935U 09051E   18020.36520111  .00000094  00000-0  32636-4 0  9997
TLE2=2 35935  98.5376 169.8722 0007297 317.2168  42.8460 14.55404116441827
